{"type": "FeatureCollection", "features": [ {"type": "Feature", "properties": {"norad_id": 34117, "name": "COSMOS 2251 DEB", "group": "cosmos-2251-debris", "lat": 73.91501431715857, "lon": 52.893393644782286, "alt_km": 733.3266402621757, "timestamp": "2025-12-27T21:25:02.910524+00:00", "meta": {"OBJECT_NAME": "COSMOS 2251 DEB", "OBJECT_ID": "1993-036KN", "EPOCH": "2025-12-27T07:39:29.528064", "MEAN_MOTION": 14.40073919, "ECCENTRICITY": 0.0055213, "INCLINATION": 74.0406, "RA_OF_ASC_NODE": 316.891, "ARG_OF_PERICENTER": 29.2303, "MEAN_ANOMALY": 331.1922, "EPHEMERIS_TYPE": 0, "CLASSIFICATION_TYPE": "U", "NORAD_CAT_ID": 34117, "ELEMENT_SET_NO": 999, "REV_AT_EPOCH": 88333, "BSTAR": 0.00085792, "MEAN_MOTION_DOT": 2.73e-05, "MEAN_MOTION_DDOT": 0}, "tle": {"line1": "1 34117U 93036KN  25361.31909176  .00002730  00000+0  85792-3 0  9995", "line2": "2 34117  74.0406 316.8910 0055213  29.2303 331.1922 14.40073919883336"}}, "geometry": {"type": "Point", "coordinates": [52.893393644782286, 73.91501431715857]}}, {"type": "Feature", "properties": {"norad_id": 34118, "name": "COSMOS 2251 DEB", "group": "cosmos-2251-debris", "lat": -50.62569018543468, "lon": 59.16309139915059, "alt_km": 632.1392691698175, "timestamp": "2025-12-27T21:25:02.910534+00:00", "meta": {"OBJECT_NAME": "COSMOS 2251 DEB", "OBJECT_ID": "1993-036KP", "EPOCH": "2025-12-27T01:46:27.150240", "MEAN_MOTION": 14.94405187, "ECCENTRICITY": 0.00601951, "INCLINATION": 73.9515, "RA_OF_ASC_NODE": 220.2859, "ARG_OF_PERICENTER": 46.7944, "MEAN_ANOMALY": 105.3488, "EPHEMERIS_TYPE": 0, "CLASSIFICATION_TYPE": "U", "NORAD_CAT_ID": 34118, "ELEMENT_SET_NO": 999, "REV_AT_EPOCH": 89390, "BSTAR": 0.0015891428, "MEAN_MOTION_DOT": 0.0001775, "MEAN_MOTION_DDOT": 0}, "tle": {"line1": "1 34118U 93036KP  25361.07392535  .00017750  00000+0  15891-2 0  9994", "line2": "2 34118  73.9515 220.2859 0060195  46.7944 105.3488 14.94405187893903"}}, "geometry": {"type": "Point", "coordinates": [59.16309139915059, -50.62569018543468]}}, {"type": "Feature", "properties": {"norad_id": 34120, "name": "COSMOS 2251 DEB", "group": "cosmos-2251-debris", "lat": 57.05163794162958, "lon": -16.32066984865455, "alt_km": 924.165688815584, "timestamp": "2025-12-27T21:25:02.910545+00:00", "meta": {"OBJECT_NAME": "COSMOS 2251 DEB", "OBJECT_ID": "1993-036KR", "EPOCH": "2025-12-26T23:04:51.235104", "MEAN_MOTION": 13.9869911, "ECCENTRICITY": 0.0182582, "INCLINATION": 73.99, "RA_OF_ASC_NODE": 191.5859, "ARG_OF_PERICENTER": 16.1274, "MEAN_ANOMALY": 96.4661, "EPHEMERIS_TYPE": 0, "CLASSIFICATION_TYPE": "U", "NORAD_CAT_ID": 34120, "ELEMENT_SET_NO": 999, "REV_AT_EPOCH": 86179, "BSTAR": 0.00033226, "MEAN_MOTION_DOT": 5.27e-06, "MEAN_MOTION_DDOT": 0}, "tle": {"line1": "1 34120U 93036KR  25360.96170411  .00000527  00000+0  33226-3 0  9998", "line2": "2 34120  73.9900 191.5859 0182582  16.1274  96.4661 13.98699110861795"}}, "geometry": {"type": "Point", "coordinates": [-16.32066984865455, 57.05163794162958]}}, {"type": "Feature", "properties": {"norad_id": 34121, "name": "COSMOS 2251 DEB", "group": "cosmos-2251-debris", "lat": -33.714200478856974, "lon": 60.16004718205665, "alt_km": 814.8693991650207, "timestamp": "2025-12-27T21:25:02.910556+00:00", "meta": {"OBJECT_NAME": "COSMOS 2251 DEB", "OBJECT_ID": "1993-036KS", "EPOCH": "2025-12-27T11:43:53.089824", "MEAN_MOTION": 13.91987404, "ECCENTRICITY": 0.0241188, "INCLINATION": 73.9931, "RA_OF_ASC_NODE": 71.8943, "ARG_OF_PERICENTER": 274.2765, "MEAN_ANOMALY": 186.7616, "EPHEMERIS_TYPE": 0, "CLASSIFICATION_TYPE": "U", "NORAD_CAT_ID": 34121, "ELEMENT_SET_NO": 999, "REV_AT_EPOCH": 85330, "BSTAR": 0.0014901, "MEAN_MOTION_DOT": 2.387e-05, "MEAN_MOTION_DDOT": 0}, "tle": {"line1": "1 34121U 93036KS  25361.48880891  .00002387  00000+0  14901-2 0  9991", "line2": "2 34121  73.9931  71.8943 0241188 274.2765 186.7616 13.91987404853304"}}, "geometry": {"type": "Point", "coordinates": [60.16004718205665, -33.714200478856974]}}, {"type": "Feature", "properties": {"norad_id": 34122, "name": "COSMOS 2251 DEB", "group": "cosmos-2251-debris", "lat": -56.439372653147, "lon": -64.958652360341, "alt_km": 695.2184283701499, "timestamp": "2025-12-27T21:25:02.910567+00:00", "meta": {"OBJECT_NAME": "COSMOS 2251 DEB", "OBJECT_ID": "1993-036KT", "EPOCH": "2025-12-27T07:27:51.345216", "MEAN_MOTION": 14.6521624, "ECCENTRICITY": 0.0085197, "INCLINATION": 74.0363, "RA_OF_ASC_NODE": 90.5979, "ARG_OF_PERICENTER": 343.4213, "MEAN_ANOMALY": 72.1444, "EPHEMERIS_TYPE": 0, "CLASSIFICATION_TYPE": "U", "NORAD_CAT_ID": 34122, "ELEMENT_SET_NO": 999, "REV_AT_EPOCH": 88898, "BSTAR": 0.0011456, "MEAN_MOTION_DOT": 6.48e-05, "MEAN_MOTION_DDOT": 0}, "tle": {"line1": "1 34122U 93036KT  25361.31101094  .00006480  00000+0  11456-2 0  9995", "line2": "2 34122  74.0363  90.5979 0085197 343.4213  72.1444 14.65216240888980"}}, "geometry": {"type": "Point", "coordinates": [-64.958652360341, -56.439372653147]}}, {"type": "Feature", "properties": {"norad_id": 34127, "name": "COSMOS 2251 DEB", "group": "cosmos-2251-debris", "lat": 53.54451745789817, "lon": 173.90792313357193, "alt_km": 779.913116429625, "timestamp": "2025-12-27T21:25:02.910579+00:00", "meta": {"OBJECT_NAME": "COSMOS 2251 DEB", "OBJECT_ID": "1993-036KY", "EPOCH": "2025-12-27T11:28:56.359776", "MEAN_MOTION": 14.31674923, "ECCENTRICITY": 0.0114337, "INCLINATION": 74.1801, "RA_OF_ASC_NODE": 17.2245, "ARG_OF_PERICENTER": 214.162, "MEAN_ANOMALY": 297.6424, "EPHEMERIS_TYPE": 0, "CLASSIFICATION_TYPE": "U", "NORAD_CAT_ID": 34127, "ELEMENT_SET_NO": 999, "REV_AT_EPOCH": 86982, "BSTAR": 0.0016339, "MEAN_MOTION_DOT": 4.658e-05, "MEAN_MOTION_DDOT": 0}, "tle": {"line1": "1 34127U 93036KY  25361.47843009  .00004658  00000+0  16339-2 0  9996", "line2": "2 34127  74.1801  17.2245 0114337 214.1620 297.6424 14.31674923869823"}}, "geometry": {"type": "Point", "coordinates": [173.90792313357193, 53.54451745789817]}}, {"type": "Feature", "properties": {"norad_id": 34128, "name": "COSMOS 2251 DEB", "group": "cosmos-2251-debris", "lat": 2.8223542915725934, "lon": 84.97673973378521, "alt_km": 581.083920807414, "timestamp": "2025-12-27T21:25:02.910590+00:00", "meta": {"OBJECT_NAME": "COSMOS 2251 DEB", "OBJECT_ID": "1993-036KZ", "EPOCH": "2025-12-27T05:21:41.487840", "MEAN_MOTION": 15.01716774, "ECCENTRICITY": 0.0026151, "INCLINATION": 73.9975, "RA_OF_ASC_NODE": 267.1533, "ARG_OF_PERICENTER": 16.4899, "MEAN_ANOMALY": 145.1458, "EPHEMERIS_TYPE": 0, "CLASSIFICATION_TYPE": "U", "NORAD_CAT_ID": 34128, "ELEMENT_SET_NO": 999, "REV_AT_EPOCH": 89384, "BSTAR": 0.0015769, "MEAN_MOTION_DOT": 0.00020686, "MEAN_MOTION_DDOT": 0}, "tle": {"line1": "1 34128U 93036KZ  25361.22339685  .00020686  00000+0  15769-2 0  9995", "line2": "2 34128  73.9975 267.1533 0026151  16.4899 145.1458 15.01716774893848"}}, "geometry": {"type": "Point", "coordinates": [84.97673973378521, 2.8223542915725934]}}, {"type": "Feature", "properties": {"norad_id": 34129, "name": "COSMOS 2251 DEB", "group": "cosmos-2251-debris", "lat": 37.6364303022915, "lon": 117.11745739331104, "alt_km": 648.1387687181532, "timestamp": "2025-12-27T21:25:02.910601+00:00", "meta": {"OBJECT_NAME": "COSMOS 2251 DEB", "OBJECT_ID": "1993-036LA", "EPOCH": "2025-12-27T06:08:44.148192", "MEAN_MOTION": 14.76012314, "ECCENTRICITY": 0.0033614, "INCLINATION": 74.0354, "RA_OF_ASC_NODE": 311.1154, "ARG_OF_PERICENTER": 28.451, "MEAN_ANOMALY": 331.849, "EPHEMERIS_TYPE": 0, "CLASSIFICATION_TYPE": "U", "NORAD_CAT_ID": 34129, "ELEMENT_SET_NO": 999, "REV_AT_EPOCH": 61512, "BSTAR": 0.0016563, "MEAN_MOTION_DOT": 0.000115, "MEAN_MOTION_DDOT": 0}, "tle": {"line1": "1 34129U 93036LA  25361.25606653  .00011500  00000+0  16563-2 0  9999", "line2": "2 34129  74.0354 311.1154 0033614  28.4510 331.8490 14.76012314615129"}}, "geometry": {"type": "Point", "coordinates": [117.11745739331104, 37.6364303022915]}}, {"type": "Feature", "properties": {"norad_id": 34136, "name": "COSMOS 2251 DEB", "group": "cosmos-2251-debris", "lat": 12.231726443909045, "lon": -170.81600526667512, "alt_km": 581.2265270690577, "timestamp": "2025-12-27T21:25:02.910611+00:00", "meta": {"OBJECT_NAME": "COSMOS 2251 DEB", "OBJECT_ID": "1993-036LH", "EPOCH": "2025-12-27T11:36:35.772768", "MEAN_MOTION": 14.80170126, "ECCENTRICITY": 0.0084832, "INCLINATION": 74.0201, "RA_OF_ASC_NODE": 13.5513, "ARG_OF_PERICENTER": 132.4349, "MEAN_ANOMALY": 17.5423, "EPHEMERIS_TYPE": 0, "CLASSIFICATION_TYPE": "U", "NORAD_CAT_ID": 34136, "ELEMENT_SET_NO": 999, "REV_AT_EPOCH": 90228, "BSTAR": 0.00039558, "MEAN_MOTION_DOT": 3.159e-05, "MEAN_MOTION_DDOT": 0}, "tle": {"line1": "1 34136U 93036LH  25361.48374737  .00003159  00000+0  39558-3 0  9998", "line2": "2 34136  74.0201  13.5513 0084832 132.4349  17.5423 14.80170126902285"}}, "geometry": {"type": "Point", "coordinates": [-170.81600526667512, 12.231726443909045]}}, {"type": "Feature", "properties": {"norad_id": 34139, "name": "COSMOS 2251 DEB", "group": "cosmos-2251-debris", "lat": -4.566955747372593, "lon": 46.48872271140619, "alt_km": 708.4879545426284, "timestamp": "2025-12-27T21:25:02.910622+00:00", "meta": {"OBJECT_NAME": "COSMOS 2251 DEB", "OBJECT_ID": "1993-036LL", "EPOCH": "2025-12-27T09:50:44.958048", "MEAN_MOTION": 14.5924961, "ECCENTRICITY": 0.0042389, "INCLINATION": 74.0298, "RA_OF_ASC_NODE": 226.0969, "ARG_OF_PERICENTER": 294.7676, "MEAN_ANOMALY": 238.4708, "EPHEMERIS_TYPE": 0, "CLASSIFICATION_TYPE": "U", "NORAD_CAT_ID": 34139, "ELEMENT_SET_NO": 999, "REV_AT_EPOCH": 88363, "BSTAR": 0.0013991, "MEAN_MOTION_DOT": 6.664e-05, "MEAN_MOTION_DDOT": 0}, "tle": {"line1": "1 34139U 93036LL  25361.41024257  .00006664  00000+0  13991-2 0  9999", "line2": "2 34139  74.0298 226.0969 0042389 294.7676 238.4708 14.59249610883634"}}, "geometry": {"type": "Point", "coordinates": [46.48872271140619, -4.566955747372593]}}]}